{
  "type": "FeatureCollection",
  "features": [
    {
      "type": "Feature",
      "properties": {
        "norad_id": 31062,
        "name": "FENGYUN 1C DEB",
        "group": "fengyun-1c-debris",
        "lat": 6.643778064376772,
        "lon": 168.03458819987915,
        "alt_km": 896.8670629325143,
        "timestamp": "2025-12-12T16:50:33.425130+00:00",
        "meta_object_name": "FENGYUN 1C DEB",
        "meta_object_id": "1999-025BFG",
        "meta_epoch": "2025-12-12T07:12:37.529568",
        "meta_mean_motion": 13.75691269,
        "meta_eccentricity": 0.01716151,
        "meta_inclination": 98.9967,
        "meta_ra_of_asc_node": 168.7129,
        "meta_arg_of_pericenter": 319.0339,
        "meta_mean_anomaly": 219.7643,
        "meta_ephemeris_type": 0,
        "meta_classification_type": "U",
        "meta_norad_cat_id": 31062,
        "meta_element_set_no": 999,
        "meta_rev_at_epoch": 94227,
        "meta_bstar": 0.00039737955,
        "meta_mean_motion_dot": 3.85e-06,
        "meta_mean_motion_ddot": 0,
        "tle_line1": "1 31062U 99025BFG 25346.30043437  .00000385  00000+0  39738-3 0  9999",
        "tle_line2": "2 31062  98.9967 168.7129 0171615 319.0339 219.7643 13.75691269942270"
      },
      "geometry": {
        "type": "Point",
        "coordinates": [
          168.03458819987915,
          6.643778064376772
        ]
      }
    },
    {
      "type": "Feature",
      "properties": {
        "norad_id": 31064,
        "name": "FENGYUN 1C DEB",
        "group": "fengyun-1c-debris",
        "lat": 26.64605890347975,
        "lon": 153.72922770083102,
        "alt_km": 968.4684404423269,
        "timestamp": "2025-12-12T16:50:33.425141+00:00",
        "meta_object_name": "FENGYUN 1C DEB",
        "meta_object_id": "1999-025BFJ",
        "meta_epoch": "2025-12-12T04:35:12.079392",
        "meta_mean_motion": 14.22133228,
        "meta_eccentricity": 0.02415989,
        "meta_inclination": 98.5738,
        "meta_ra_of_asc_node": 328.8908,
        "meta_arg_of_pericenter": 3.2214,
        "meta_mean_anomaly": 55.3997,
        "meta_ephemeris_type": 0,
        "meta_classification_type": "U",
        "meta_norad_cat_id": 31064,
        "meta_element_set_no": 999,
        "meta_rev_at_epoch": 97247,
        "meta_bstar": 0.00059360363,
        "meta_mean_motion_dot": 1.723e-05,
        "meta_mean_motion_ddot": 0,
        "tle_line1": "1 31064U 99025BFJ 25346.19111203  .00001723  00000+0  59360-3 0  9995",
        "tle_line2": "2 31064  98.5738 328.8908 0241598   3.2214  55.3997 14.22133228972470"
      },
      "geometry": {
        "type": "Point",
        "coordinates": [
          153.72922770083102,
          26.64605890347975
        ]
      }
    },
    {
      "type": "Feature",
      "properties": {
        "norad_id": 31065,
        "name": "FENGYUN 1C DEB",
        "group": "fengyun-1c-debris",
        "lat": 77.67379626323729,
        "lon": -37.164717189648705,
        "alt_km": 774.012517748356,
        "timestamp": "2025-12-12T16:50:33.425151+00:00",
        "meta_object_name": "FENGYUN 1C DEB",
        "meta_object_id": "1999-025BFK",
        "meta_epoch": "2025-12-10T19:04:06.540960",
        "meta_mean_motion": 14.28161243,
        "meta_eccentricity": 0.00352875,
        "meta_inclination": 98.4671,
        "meta_ra_of_asc_node": 3.9618,
        "meta_arg_of_pericenter": 37.2284,
        "meta_mean_anomaly": 323.1334,
        "meta_ephemeris_type": 0,
        "meta_classification_type": "U",
        "meta_norad_cat_id": 31065,
        "meta_element_set_no": 999,
        "meta_rev_at_epoch": 64550,
        "meta_bstar": 0.0013095364,
        "meta_mean_motion_dot": 3.239e-05,
        "meta_mean_motion_ddot": 0,
        "tle_line1": "1 31065U 99025BFK 25344.79452015  .00003239  00000+0  13095-2 0  9997",
        "tle_line2": "2 31065  98.4671   3.9618 0035287  37.2284 323.1334 14.28161243645501"
      },
      "geometry": {
        "type": "Point",
        "coordinates": [
          -37.164717189648705,
          77.67379626323729
        ]
      }
    },
    {
      "type": "Feature",
      "properties": {
        "norad_id": 31068,
        "name": "FENGYUN 1C DEB",
        "group": "fengyun-1c-debris",
        "lat": 55.81232318553423,
        "lon": 161.7906488147289,
        "alt_km": 737.3042415123691,
        "timestamp": "2025-12-12T16:50:33.425161+00:00",
        "meta_object_name": "FENGYUN 1C DEB",
        "meta_object_id": "1999-025BFN",
        "meta_epoch": "2025-12-08T16:50:26.088576",
        "meta_mean_motion": 14.0918717,
        "meta_eccentricity": 0.01655633,
        "meta_inclination": 98.6287,
        "meta_ra_of_asc_node": 325.0408,
        "meta_arg_of_pericenter": 129.6248,
        "meta_mean_anomaly": 231.9669,
        "meta_ephemeris_type": 0,
        "meta_classification_type": "U",
        "meta_norad_cat_id": 31068,
        "meta_element_set_no": 999,
        "meta_rev_at_epoch": 96298,
        "meta_bstar": 0.00020953749,
        "meta_mean_motion_dot": 3.73e-06,
        "meta_mean_motion_ddot": 0,
        "tle_line1": "1 31068U 99025BFN 25342.70169084  .00000373  00000+0  20954-3 0  9999",
        "tle_line2": "2 31068  98.6287 325.0408 0165563 129.6248 231.9669 14.09187170962988"
      },
      "geometry": {
        "type": "Point",
        "coordinates": [
          161.7906488147289,
          55.81232318553423
        ]
      }
    },
    {
      "type": "Feature",
      "properties": {
        "norad_id": 31069,
        "name": "FENGYUN 1C DEB",
        "group": "fengyun-1c-debris",
        "lat": 68.07001089066112,
        "lon": -9.55916008596146,
        "alt_km": 633.1283644114128,
        "timestamp": "2025-12-12T16:50:33.425172+00:00",
        "meta_object_name": "FENGYUN 1C DEB",
        "meta_object_id": "1999-025BFP",
        "meta_epoch": "2025-12-07T04:30:06.594048",
        "meta_mean_motion": 14.57048672,
        "meta_eccentricity": 0.01047006,
        "meta_inclination": 99.0995,
        "meta_ra_of_asc_node": 140.963,
        "meta_arg_of_pericenter": 94.1529,
        "meta_mean_anomaly": 267.1641,
        "meta_ephemeris_type": 0,
        "meta_classification_type": "U",
        "meta_norad_cat_id": 31069,
        "meta_element_set_no": 999,
        "meta_rev_at_epoch": 98605,
        "meta_bstar": 0.0012606764,
        "meta_mean_motion_dot": 6.061e-05,
        "meta_mean_motion_ddot": 0,
        "tle_line1": "1 31069U 99025BFP 25341.18757632  .00006061  00000+0  12607-2 0  9998",
        "tle_line2": "2 31069  99.0995 140.9630 0104700  94.1529 267.1641 14.57048672986056"
      },
      "geometry": {
        "type": "Point",
        "coordinates": [
          -9.55916008596146,
          68.07001089066112
        ]
      }
    },
    {
      "type": "Feature",
      "properties": {
        "norad_id": 31071,
        "name": "FENGYUN 1C DEB",
        "group": "fengyun-1c-debris",
        "lat": -25.95673846648857,
        "lon": -120.00051958933844,
        "alt_km": 712.7335557686401,
        "timestamp": "2025-12-12T16:50:33.425182+00:00",
        "meta_object_name": "FENGYUN 1C DEB",
        "meta_object_id": "1999-025BFR",
        "meta_epoch": "2025-12-11T11:47:14.652384",
        "meta_mean_motion": 14.52614278,
        "meta_eccentricity": 0.00555669,
        "meta_inclination": 99.0415,
        "meta_ra_of_asc_node": 63.1415,
        "meta_arg_of_pericenter": 285.5225,
        "meta_mean_anomaly": 73.9837,
        "meta_ephemeris_type": 0,
        "meta_classification_type": "U",
        "meta_norad_cat_id": 31071,
        "meta_element_set_no": 999,
        "meta_rev_at_epoch": 65476,
        "meta_bstar": 0.0020144701,
        "meta_mean_motion_dot": 8.368e-05,
        "meta_mean_motion_ddot": 0,
        "tle_line1": "1 31071U 99025BFR 25345.49114181  .00008368  00000+0  20145-2 0  9993",
        "tle_line2": "2 31071  99.0415  63.1415 0055566 285.5225  73.9837 14.52614278654763"
      },
      "geometry": {
        "type": "Point",
        "coordinates": [
          -120.00051958933844,
          -25.95673846648857
        ]
      }
    },
    {
      "type": "Feature",
      "properties": {
        "norad_id": 31072,
        "name": "FENGYUN 1C DEB",
        "group": "fengyun-1c-debris",
        "lat": 69.32608294670685,
        "lon": -33.75483767923542,
        "alt_km": 663.9069712160472,
        "timestamp": "2025-12-12T16:50:33.425192+00:00",
        "meta_object_name": "FENGYUN 1C DEB",
        "meta_object_id": "1999-025BFS",
        "meta_epoch": "2025-12-09T17:45:43.073568",
        "meta_mean_motion": 14.25468568,
        "meta_eccentricity": 0.02104856,
        "meta_inclination": 99.333,
        "meta_ra_of_asc_node": 348.93,
        "meta_arg_of_pericenter": 106.2729,
        "meta_mean_anomaly": 256.1714,
        "meta_ephemeris_type": 0,
        "meta_classification_type": "U",
        "meta_norad_cat_id": 31072,
        "meta_element_set_no": 999,
        "meta_rev_at_epoch": 96600,
        "meta_bstar": 0.00088556176,
        "meta_mean_motion_dot": 2.587e-05,
        "meta_mean_motion_ddot": 0,
        "tle_line1": "1 31072U 99025BFS 25343.74008187  .00002587  00000+0  88556-3 0  9996",
        "tle_line2": "2 31072  99.3330 348.9300 0210485 106.2729 256.1714 14.25468568966002"
      },
      "geometry": {
        "type": "Point",
        "coordinates": [
          -33.75483767923542,
          69.32608294670685
        ]
      }
    }
  ]
}